ELECTRON KICK STAGE R/B 
1 67074U 25297C   25359.66696340  .00363332  38077-4  18274-2 0  9996
2 67074  97.4820 147.7565 0188929 222.6109 136.0361 15.60149834  1798
STARLINK-36230          
1 67075U 25298A   25359.83335647 -.01744028  00000+0 -11313-1 0  9991
2 67075  69.9967 212.7469 0003937 273.5136  96.3131 15.78558214  3083
STARLINK-36240          
1 67076U 25298B   25359.83335647 -.01738932  00000+0 -11278-1 0  9999
2 67076  69.9967 212.7445 0003788 269.1108 102.6482 15.78555940  3085
STARLINK-36243          
1 67077U 25298C   25359.83335647 -.01744651  00000+0 -11324-1 0  9997
2 67077  69.9964 212.7418 0003869 274.2990  99.6660 15.78547136  3080
STARLINK-36236          
1 67078U 25298D   25359.83335647 -.01743524  00000+0 -11314-1 0  9995
2 67078  69.9967 212.7396 0003878 274.1671 101.6126 15.78550579  3080
STARLINK-36159          
1 67079U 25298E   25359.83335647 -.01743793  00000+0 -11320-1 0  9991
2 67079  69.9969 212.7373 0003900 275.4363 102.5572 15.78540890  3086
STARLINK-36158          
1 67080U 25298F   25359.83335647 -.01748846  00000+0 -11361-1 0  9992
2 67080  69.9966 212.7345 0003827 270.1361 109.9776 15.78534276  3024
STARLINK-35864          
1 67081U 25298G   25359.83335647 -.01746377  00000+0 -11345-1 0  9992
2 67081  69.9968 212.7322 0003920 272.9498 109.1242 15.78529957  3083
STARLINK-36035          
1 67082U 25298H   25359.83335647 -.01747292  00000+0 -11354-1 0  9990
2 67082  69.9968 212.7299 0003925 275.3773 108.7482 15.78524988  3085
STARLINK-36170          
1 67083U 25298J   25359.83335647 -.01742473  00000+0 -11323-1 0  9993
2 67083  69.9965 212.7271 0004010 270.9224 115.2914 15.78515624  3081
STARLINK-36166          
1 67084U 25298K   25359.83335647 -.01744814  00000+0 -11341-1 0  9995
2 67084  69.9965 212.7248 0003952 275.3856 112.8214 15.78513844  3022
STARLINK-35794          
1 67085U 25298L   25359.83335647 -.01745593  00000+0 -11347-1 0  9997
2 67085  69.9968 212.7224 0003958 273.1044 117.0678 15.78514297  3081
