CCSDS_OMM_VERS = 2.0
CREATION_DATE  = 
ORIGINATOR     = 

OBJECT_NAME    = ELECTRON KICK STAGE R/B
OBJECT_ID      = 2025-297C
CENTER_NAME    = EARTH
REF_FRAME      = TEME
TIME_SYSTEM    = UTC
MEAN_ELEMENT_THEORY = SGP/SGP4

EPOCH          = 2025-12-25T16:00:25.637760
MEAN_MOTION    = 15.60149834
ECCENTRICITY   = .0188929
INCLINATION    = 97.4820
RA_OF_ASC_NODE = 147.7565
ARG_OF_PERICENTER = 222.6109
MEAN_ANOMALY   = 136.0361

EPHEMERIS_TYPE = 0
CLASSIFICATION_TYPE = U
NORAD_CAT_ID   = 67074
ELEMENT_SET_NO = 999
REV_AT_EPOCH   = 179
BSTAR          = .18274E-2
MEAN_MOTION_DOT = .363332E-2
MEAN_MOTION_DDOT = .38077E-4

CCSDS_OMM_VERS = 2.0
CREATION_DATE  = 
ORIGINATOR     = 

OBJECT_NAME    = STARLINK-36230
OBJECT_ID      = 2025-298A
CENTER_NAME    = EARTH
REF_FRAME      = TEME
TIME_SYSTEM    = UTC
MEAN_ELEMENT_THEORY = SGP/SGP4

EPOCH          = 2025-12-25T20:00:01.999008
MEAN_MOTION    = 15.78558214
ECCENTRICITY   = .0003937
INCLINATION    = 69.9967
RA_OF_ASC_NODE = 212.7469
ARG_OF_PERICENTER = 273.5136
MEAN_ANOMALY   = 96.3131

EPHEMERIS_TYPE = 0
CLASSIFICATION_TYPE = U
NORAD_CAT_ID   = 67075
ELEMENT_SET_NO = 999
REV_AT_EPOCH   = 308
BSTAR          = -.11313E-1
MEAN_MOTION_DOT = -.1744028E-1
MEAN_MOTION_DDOT = 0

CCSDS_OMM_VERS = 2.0
CREATION_DATE  = 
ORIGINATOR     = 

OBJECT_NAME    = STARLINK-36240
OBJECT_ID      = 2025-298B
CENTER_NAME    = EARTH
REF_FRAME      = TEME
TIME_SYSTEM    = UTC
MEAN_ELEMENT_THEORY = SGP/SGP4

EPOCH          = 2025-12-25T20:00:01.999008
MEAN_MOTION    = 15.78555940
ECCENTRICITY   = .0003788
INCLINATION    = 69.9967
RA_OF_ASC_NODE = 212.7445
ARG_OF_PERICENTER = 269.1108
MEAN_ANOMALY   = 102.6482

EPHEMERIS_TYPE = 0
CLASSIFICATION_TYPE = U
NORAD_CAT_ID   = 67076
ELEMENT_SET_NO = 999
REV_AT_EPOCH   = 308
BSTAR          = -.11278E-1
MEAN_MOTION_DOT = -.1738932E-1
MEAN_MOTION_DDOT = 0

CCSDS_OMM_VERS = 2.0
CREATION_DATE  = 
ORIGINATOR     = 

OBJECT_NAME    = STARLINK-36243
OBJECT_ID      = 2025-298C
CENTER_NAME    = EARTH
REF_FRAME      = TEME
TIME_SYSTEM    = UTC
MEAN_ELEMENT_THEORY = SGP/SGP4

EPOCH          = 2025-12-25T20:00:01.999008
MEAN_MOTION    = 15.78547136
ECCENTRICITY   = .0003869
INCLINATION    = 69.9964
RA_OF_ASC_NODE = 212.7418
ARG_OF_PERICENTER = 274.2990
MEAN_ANOMALY   = 99.6660

EPHEMERIS_TYPE = 0
CLASSIFICATION_TYPE = U
NORAD_CAT_ID   = 67077
ELEMENT_SET_NO = 999
REV_AT_EPOCH   = 308
BSTAR          = -.11324E-1
MEAN_MOTION_DOT = -.1744651E-1
MEAN_MOTION_DDOT = 0

CCSDS_OMM_VERS = 2.0
CREATION_DATE  = 
ORIGINATOR     = 

OBJECT_NAME    = STARLINK-36236
OBJECT_ID      = 2025-298D
CENTER_NAME    = EARTH
REF_FRAME      = TEME
TIME_SYSTEM    = UTC
MEAN_ELEMENT_THEORY = SGP/SGP4

EPOCH          = 2025-12-25T20:00:01.999008
MEAN_MOTION    = 15.78550579
ECCENTRICITY   = .0003878
INCLINATION    = 69.9967
RA_OF_ASC_NODE = 212.7396
ARG_OF_PERICENTER = 274.1671
MEAN_ANOMALY   = 101.6126

EPHEMERIS_TYPE = 0
CLASSIFICATION_TYPE = U
NORAD_CAT_ID   = 67078
ELEMENT_SET_NO = 999
REV_AT_EPOCH   = 308
BSTAR          = -.11314E-1
MEAN_MOTION_DOT = -.1743524E-1
MEAN_MOTION_DDOT = 0

CCSDS_OMM_VERS = 2.0
CREATION_DATE  = 
ORIGINATOR     = 

OBJECT_NAME    = STARLINK-36159
OBJECT_ID      = 2025-298E
CENTER_NAME    = EARTH
REF_FRAME      = TEME
TIME_SYSTEM    = UTC
MEAN_ELEMENT_THEORY = SGP/SGP4

EPOCH          = 2025-12-25T20:00:01.999008
MEAN_MOTION    = 15.78540890
ECCENTRICITY   = .00039
INCLINATION    = 69.9969
RA_OF_ASC_NODE = 212.7373
ARG_OF_PERICENTER = 275.4363
MEAN_ANOMALY   = 102.5572

EPHEMERIS_TYPE = 0
CLASSIFICATION_TYPE = U
NORAD_CAT_ID   = 67079
ELEMENT_SET_NO = 999
REV_AT_EPOCH   = 308
BSTAR          = -.1132E-1
MEAN_MOTION_DOT = -.1743793E-1
MEAN_MOTION_DDOT = 0

CCSDS_OMM_VERS = 2.0
CREATION_DATE  = 
ORIGINATOR     = 

OBJECT_NAME    = STARLINK-36158
OBJECT_ID      = 2025-298F
CENTER_NAME    = EARTH
REF_FRAME      = TEME
TIME_SYSTEM    = UTC
MEAN_ELEMENT_THEORY = SGP/SGP4

EPOCH          = 2025-12-25T20:00:01.999008
MEAN_MOTION    = 15.78534276
ECCENTRICITY   = .0003827
INCLINATION    = 69.9966
RA_OF_ASC_NODE = 212.7345
ARG_OF_PERICENTER = 270.1361
MEAN_ANOMALY   = 109.9776

EPHEMERIS_TYPE = 0
CLASSIFICATION_TYPE = U
NORAD_CAT_ID   = 67080
ELEMENT_SET_NO = 999
REV_AT_EPOCH   = 302
BSTAR          = -.11361E-1
MEAN_MOTION_DOT = -.1748846E-1
MEAN_MOTION_DDOT = 0

CCSDS_OMM_VERS = 2.0
CREATION_DATE  = 
ORIGINATOR     = 

OBJECT_NAME    = STARLINK-35864
OBJECT_ID      = 2025-298G
CENTER_NAME    = EARTH
REF_FRAME      = TEME
TIME_SYSTEM    = UTC
MEAN_ELEMENT_THEORY = SGP/SGP4

EPOCH          = 2025-12-25T20:00:01.999008
MEAN_MOTION    = 15.78529957
ECCENTRICITY   = .000392
INCLINATION    = 69.9968
RA_OF_ASC_NODE = 212.7322
ARG_OF_PERICENTER = 272.9498
MEAN_ANOMALY   = 109.1242

EPHEMERIS_TYPE = 0
CLASSIFICATION_TYPE = U
NORAD_CAT_ID   = 67081
ELEMENT_SET_NO = 999
REV_AT_EPOCH   = 308
BSTAR          = -.11345E-1
MEAN_MOTION_DOT = -.1746377E-1
MEAN_MOTION_DDOT = 0

CCSDS_OMM_VERS = 2.0
CREATION_DATE  = 
ORIGINATOR     = 

OBJECT_NAME    = STARLINK-36035
OBJECT_ID      = 2025-298H
CENTER_NAME    = EARTH
REF_FRAME      = TEME
TIME_SYSTEM    = UTC
MEAN_ELEMENT_THEORY = SGP/SGP4

EPOCH          = 2025-12-25T20:00:01.999008
MEAN_MOTION    = 15.78524988
ECCENTRICITY   = .0003925
INCLINATION    = 69.9968
RA_OF_ASC_NODE = 212.7299
ARG_OF_PERICENTER = 275.3773
MEAN_ANOMALY   = 108.7482

EPHEMERIS_TYPE = 0
CLASSIFICATION_TYPE = U
NORAD_CAT_ID   = 67082
ELEMENT_SET_NO = 999
REV_AT_EPOCH   = 308
BSTAR          = -.11354E-1
MEAN_MOTION_DOT = -.1747292E-1
MEAN_MOTION_DDOT = 0

CCSDS_OMM_VERS = 2.0
CREATION_DATE  = 
ORIGINATOR     = 

OBJECT_NAME    = STARLINK-36170
OBJECT_ID      = 2025-298J
CENTER_NAME    = EARTH
REF_FRAME      = TEME
TIME_SYSTEM    = UTC
MEAN_ELEMENT_THEORY = SGP/SGP4

EPOCH          = 2025-12-25T20:00:01.999008
MEAN_MOTION    = 15.78515624
ECCENTRICITY   = .000401
INCLINATION    = 69.9965
RA_OF_ASC_NODE = 212.7271
ARG_OF_PERICENTER = 270.9224
MEAN_ANOMALY   = 115.2914

EPHEMERIS_TYPE = 0
CLASSIFICATION_TYPE = U
NORAD_CAT_ID   = 67083
ELEMENT_SET_NO = 999
REV_AT_EPOCH   = 308
BSTAR          = -.11323E-1
MEAN_MOTION_DOT = -.1742473E-1
MEAN_MOTION_DDOT = 0

CCSDS_OMM_VERS = 2.0
CREATION_DATE  = 
ORIGINATOR     = 

OBJECT_NAME    = STARLINK-36166
OBJECT_ID      = 2025-298K
CENTER_NAME    = EARTH
REF_FRAME      = TEME
TIME_SYSTEM    = UTC
MEAN_ELEMENT_THEORY = SGP/SGP4

EPOCH          = 2025-12-25T20:00:01.999008
MEAN_MOTION    = 15.78513844
ECCENTRICITY   = .0003952
INCLINATION    = 69.9965
RA_OF_ASC_NODE = 212.7248
ARG_OF_PERICENTER = 275.3856
MEAN_ANOMALY   = 112.8214

EPHEMERIS_TYPE = 0
CLASSIFICATION_TYPE = U
NORAD_CAT_ID   = 67084
ELEMENT_SET_NO = 999
REV_AT_EPOCH   = 302
BSTAR          = -.11341E-1
MEAN_MOTION_DOT = -.1744814E-1
MEAN_MOTION_DDOT = 0

CCSDS_OMM_VERS = 2.0
CREATION_DATE  = 
ORIGINATOR     = 

OBJECT_NAME    = STARLINK-35794
OBJECT_ID      = 2025-298L
CENTER_NAME    = EARTH
REF_FRAME      = TEME
TIME_SYSTEM    = UTC
MEAN_ELEMENT_THEORY = SGP/SGP4

EPOCH          = 2025-12-25T20:00:01.999008
MEAN_MOTION    = 15.78514297
ECCENTRICITY   = .0003958
INCLINATION    = 69.9968
RA_OF_ASC_NODE = 212.7224
ARG_OF_PERICENTER = 273.1044
MEAN_ANOMALY   = 117.0678

EPHEMERIS_TYPE = 0
CLASSIFICATION_TYPE = U
NORAD_CAT_ID   = 67085
ELEMENT_SET_NO = 999
REV_AT_EPOCH   = 308
BSTAR          = -.11347E-1
MEAN_MOTION_DOT = -.1745593E-1
MEAN_MOTION_DDOT = 0

